[{"OBJECT_NAME":"STARLINK-35890","OBJECT_ID":"2025-280Q","EPOCH":"2026-03-09T22:39:14.243904","MEAN_MOTION":14.983291,"ECCENTRICITY":0.00027531,"INCLINATION":70.0024,"RA_OF_ASC_NODE":333.8241,"ARG_OF_PERICENTER":264.1661,"MEAN_ANOMALY":95.9184,"EPHEMERIS_TYPE":0,"CLASSIFICATION_TYPE":"U","NORAD_CAT_ID":66835,"ELEMENT_SET_NO":999,"REV_AT_EPOCH":1611,"BSTAR":0.00028267663,"MEAN_MOTION_DOT":3.281e-5,"MEAN_MOTION_DDOT":0},{"OBJECT_NAME":"CZ-6A DEB","OBJECT_ID":"2022-151EL","EPOCH":"2026-03-09T12:09:26.951616","MEAN_MOTION":14.86893831,"ECCENTRICITY":0.00944101,"INCLINATION":98.6325,"RA_OF_ASC_NODE":168.3306,"ARG_OF_PERICENTER":70.5159,"MEAN_ANOMALY":290.6224,"EPHEMERIS_TYPE":0,"CLASSIFICATION_TYPE":"U","NORAD_CAT_ID":54412,"ELEMENT_SET_NO":999,"REV_AT_EPOCH":17774,"BSTAR":0.0014840705,"MEAN_MOTION_DOT":0.00014338,"MEAN_MOTION_DDOT":0}]
